     3.00           N                   E                   RINEX VERSION / TYPE
BRD_USR             ESA                 20190109 051636  UTCPGM / RUN BY / DATE
 GAL   4.8250E+01  8.5938E-02 -3.9368E-03  0.0000E+00       IONOSPHERIC CORR
GAUT  0.0000000000E+00 0.000000000E+00 259200 2035 GSTB   0 TIME SYSTEM CORR
GPGA -5.5297277868E-10 4.884981308E-15 259200 2035 GSTB   0 TIME SYSTEM CORR
                                                            END OF HEADER
E01 2019 01 09 02 40 00-5.167896742932E-04-8.185452315956E-12 0.000000000000E+00
     6.400000000000E+01 3.921875000000E+01 2.556535061376E-09-2.038418392194E-01
     1.845881342888E-06 1.124864211306E-04 1.179240643978E-05 5.440620409012E+03
     2.688000000000E+05 9.313225746155E-09-2.947609312514E+00 5.401670932770E-08
     9.902755072355E-01 9.981250000000E+01-7.968818377157E-01-5.196645032553E-09
    -4.753769442150E-10 2.580000000000E+02 2.035000000000E+03 0.000000000000E+00
     3.120000000000E+00 0.000000000000E+00-4.656612873077E-09 0.000000000000E+00
     2.700000000000E+05 0.000000000000E+00 0.000000000000E+00 0.000000000000E+00
E02 2019 01 09 02 40 00 4.255311796442E-05 1.662670001679E-12 0.000000000000E+00
     6.400000000000E+01 5.868750000000E+01 2.454030791661E-09 2.391588953405E+00
     2.732500433922E-06 2.687274245545E-04 1.146644353867E-05 5.440623502731E+03
     2.688000000000E+05-9.313225746155E-09-2.947643582833E+00-4.097819328308E-08
     9.902834816019E-01 1.080000000000E+02-2.524329484913E-01-5.032352474823E-09
    -3.357282701443E-10 2.580000000000E+02 2.035000000000E+03 0.000000000000E+00
     3.120000000000E+00 0.000000000000E+00-6.053596735001E-09 0.000000000000E+00
     2.700000000000E+05 0.000000000000E+00 0.000000000000E+00 0.000000000000E+00
E03 2019 01 09 02 40 00-1.200896804221E-04-4.277467269276E-12 0.000000000000E+00
     6.400000000000E+01 3.590625000000E+01 3.259064324539E-09-2.668347265683E+00
     1.713633537292E-06 2.611089730635E-04 8.815899491310E-06 5.440615234375E+03
     2.688000000000E+05-1.098960638046E-07 1.243067686964E+00 4.284083843231E-08
     9.523340802399E-01 1.480000000000E+02 6.151021373130E-01-5.520229939735E-09
     5.882387882210E-10 2.580000000000E+02 2.035000000000E+03 0.000000000000E+00
     3.120000000000E+00 0.000000000000E+00-1.862645149231E-09 0.000000000000E+00
     2.700000000000E+05 0.000000000000E+00 0.000000000000E+00 0.000000000000E+00
E04 2019 01 09 02 40 00-1.961793168448E-04-7.872813512222E-12 0.000000000000E+00
     6.400000000000E+01 1.706250000000E+01 3.230134548069E-09-1.789759017481E+00
     8.586794137955E-07 7.103628013283E-05 8.990988135338E-06 5.440614072800E+03
     2.688000000000E+05 4.284083843231E-08 1.243117613433E+00 1.490116119385E-08
     9.523770037192E-01 1.444062500000E+02 2.097212053071E+00-5.484157008581E-09
     6.096682522727E-10 2.580000000000E+02 2.035000000000E+03 0.000000000000E+00
     3.120000000000E+00 0.000000000000E+00-7.916241884232E-09 0.000000000000E+00
     2.700000000000E+05 0.000000000000E+00 0.000000000000E+00 0.000000000000E+00
E05 2019 01 09 02 30 00 1.282776938751E-04-6.536993168993E-12 0.000000000000E+00
     6.300000000000E+01 3.346875000000E+01 3.306923460922E-09-2.949442297665E+00
     1.555308699608E-06 1.325813354924E-04 8.761882781982E-06 5.440616067886E+03
     2.682000000000E+05-2.421438694000E-08 1.243055224365E+00-5.215406417847E-08
     9.523466364658E-01 1.494375000000E+02 1.609291558984E+00-5.564874656509E-09
     5.300220775470E-10 2.580000000000E+02 2.035000000000E+03 0.000000000000E+00
     3.120000000000E+00 0.000000000000E+00-1.396983861923E-09 0.000000000000E+00
     2.700000000000E+05 0.000000000000E+00 0.000000000000E+00 0.000000000000E+00
E07 2019 01 09 02 40 00-1.090950681828E-04-7.119638212316E-12 0.000000000000E+00
     6.400000000000E+01 2.746875000000E+01 3.346567969417E-09 2.678125949941E+00
     1.313164830208E-06 1.401104964316E-04 9.350478649139E-06 5.440613422394E+03
     2.688000000000E+05 4.097819328308E-08 1.243069108921E+00 6.146728992462E-08
     9.523769334992E-01 1.349062500000E+02-1.860347424652E-02-5.584161174156E-09
     6.185971956276E-10 2.580000000000E+02 2.035000000000E+03 0.000000000000E+00
     3.120000000000E+00 0.000000000000E+00 2.328306436539E-10 0.000000000000E+00
     2.700000000000E+05 0.000000000000E+00 0.000000000000E+00 0.000000000000E+00
E08 2019 01 09 02 30 00 6.427109590732E-03-7.460698725481E-12 0.000000000000E+00
     6.300000000000E+01 3.168750000000E+01 3.177632361143E-09 2.918632482198E+00
     1.495704054832E-06 2.166135236621E-04 9.194016456604E-06 5.440614509583E+03
     2.682000000000E+05 1.862645149231E-08 1.234444473922E+00 7.264316082001E-08
     9.583207989136E-01 1.423437500000E+02 4.531317286982E-01-5.522372886140E-09
     6.564559154524E-10 2.580000000000E+02 2.035000000000E+03 0.000000000000E+00
     3.120000000000E+00 0.000000000000E+00-8.614733815193E-09 0.000000000000E+00
     2.700000000000E+05 0.000000000000E+00 0.000000000000E+00 0.000000000000E+00
E09 2019 01 09 02 20 00 6.563832634129E-03-1.132605120802E-11 0.000000000000E+00
     6.200000000000E+01 2.331250000000E+01 3.189061408637E-09-7.094870107190E-01
     1.121312379837E-06 2.428855514154E-04 8.553266525269E-06 5.440619483948E+03
     2.676000000000E+05-7.450580596924E-09 1.234445208306E+00-3.725290298462E-08
     9.583501626053E-01 1.552187500000E+02 7.861437512999E-02-5.532730460432E-09
     5.771668984609E-10 2.580000000000E+02 2.035000000000E+03 0.000000000000E+00
     3.120000000000E+00 0.000000000000E+00-3.259629011154E-09 0.000000000000E+00
     2.700000000000E+05 0.000000000000E+00 0.000000000000E+00 0.000000000000E+00
E11 2019 01 09 02 30 00 5.719373293687E-03 9.805489753489E-13 0.000000000000E+00
     6.300000000000E+01-6.759375000000E+01 3.102629236961E-09 1.902802027068E+00
    -3.090128302574E-06 2.534078666940E-04-2.887099981308E-07 5.440605583191E+03
     2.682000000000E+05 5.587935447693E-08-8.621474906007E-01 7.078051567078E-08
     9.819034786897E-01 3.551875000000E+02-3.638905089060E-01-5.903103030793E-09
    -1.396486740707E-10 2.580000000000E+02 2.035000000000E+03 0.000000000000E+00
     3.120000000000E+00 0.000000000000E+00-1.816079020500E-08 0.000000000000E+00
     2.700000000000E+05 0.000000000000E+00 0.000000000000E+00 0.000000000000E+00
E12 2019 01 09 02 40 00 5.901087191887E-03 8.432721188001E-11 0.000000000000E+00
     6.400000000000E+01-5.053125000000E+01 3.101914921493E-09-2.976832110560E+00
    -2.432614564896E-06 3.841744037345E-04-3.185123205185E-07 5.440600496292E+03
     2.688000000000E+05-1.117587089539E-08-8.621664587965E-01 4.470348358154E-08
     9.819181868681E-01 3.560937500000E+02-8.894119533607E-01-5.844529162385E-09
    -1.450060400836E-10 2.580000000000E+02 2.035000000000E+03 0.000000000000E+00
     3.120000000000E+00 0.000000000000E+00-1.559965312481E-08 0.000000000000E+00
     2.700000000000E+05 0.000000000000E+00 0.000000000000E+00 0.000000000000E+00
E13 2019 01 09 02 10 00 3.815001109615E-04 4.121147867409E-13 0.000000000000E+00
     6.100000000000E+01-6.490625000000E+01 3.144059534128E-09-1.782680167556E-01
    -2.935528755188E-06 3.394969971851E-04-5.289912223816E-07 5.440596031189E+03
     2.670000000000E+05-1.117587089539E-08-8.674355488581E-01 1.862645149231E-08
     9.851447053570E-01 3.646562500000E+02-1.566740624876E+00-5.950247851707E-09
    -1.825076021742E-10 2.580000000000E+02 2.035000000000E+03 0.000000000000E+00
     3.120000000000E+00 5.600000000000E+01-4.190951585770E-09 0.000000000000E+00
     2.700000000000E+05 0.000000000000E+00 0.000000000000E+00 0.000000000000E+00
E14 2019 01 09 02 40 00 6.462667661253E-03-5.627498467220E-12 0.000000000000E+00
     6.400000000000E+01 7.109375000000E+01 2.514033291006E-09-1.417060660642E+00
     5.973502993584E-06 1.663427416934E-01-2.048909664154E-08 5.289365196228E+03
     2.688000000000E+05 5.606561899185E-06-1.463306848284E+00 4.135072231293E-06
     8.825928006528E-01 3.426562500000E+02 1.455167707519E+00-3.439428980308E-09
    -5.903817346261E-10 2.580000000000E+02 2.035000000000E+03 0.000000000000E+00
     3.120000000000E+00 5.600000000000E+01 3.329478204250E-08 0.000000000000E+00
     2.700000000000E+05 0.000000000000E+00 0.000000000000E+00 0.000000000000E+00
E15 2019 01 09 02 40 00 9.234730387107E-04-1.023181539495E-12 0.000000000000E+00
     6.400000000000E+01-7.556250000000E+01 3.056555889250E-09 9.083683931668E-01
    -3.527849912643E-06 3.886853810400E-04-2.328306436539E-07 5.440595588684E+03
     2.688000000000E+05-5.587935447693E-08-8.674581553312E-01-3.725290298462E-08
     9.851029214908E-01 3.585000000000E+02-1.647978692379E+00-5.882387882210E-09
    -1.907222300607E-10 2.580000000000E+02 2.035000000000E+03 0.000000000000E+00
     3.120000000000E+00 5.600000000000E+01 1.629814505577E-09 0.000000000000E+00
     2.700000000000E+05 0.000000000000E+00 0.000000000000E+00 0.000000000000E+00
E18 2019 01 09 02 30 00 5.620320094749E-03-2.839328772097E-11 0.000000000000E+00
     6.300000000000E+01 1.780937500000E+02 4.021953244782E-09 1.613206285340E+00
     5.118548870087E-06 1.663729884895E-01-3.801658749580E-06 5.289392827988E+03
     2.682000000000E+05 1.624226570129E-06-1.446181301656E+00-1.288950443268E-06
     8.817747441775E-01 3.600000000000E+02 1.439914024553E+00-5.807384758028E-09
    -3.064413359402E-10 2.580000000000E+02 2.035000000000E+03 0.000000000000E+00
     3.120000000000E+00 5.600000000000E+01 1.420266926289E-08 0.000000000000E+00
     2.700000000000E+05 0.000000000000E+00 0.000000000000E+00 0.000000000000E+00
